YOTSUBA-KULOVER         
1 65941U 98067XN  26062.12376300  .00191043  00000+0  10993-2 0  9994
2 65941  51.6215  91.2752 0006055  28.2393 331.8934 15.77593623 22469
BOTAN                   
1 65942U 98067XP  26062.18133612  .04280876  12003-4  14562-2 0  9992
2 65942  51.6045  83.2412 0003369  47.8026 312.3279 16.24781476 22576
E-KAGAKU-1              
1 65943U 98067XQ  26062.12696390  .00184729  00000+0  10758-2 0  9992
2 65943  51.6235  91.3116 0006275  36.2244 323.9180 15.77340403 22467
HRC MONOBLOCK CAMERA    
1 66052U 98067XR  26061.40570658  .00053624  00000+0  62049-3 0  9992
2 66052  51.6272 102.2710 0003324  60.8077 299.3249 15.61308322 21256
HTV-X1                  
1 66174U 25241A   26061.93054995  .00009325  00000+0  18075-3 0  9999
2 66174  51.6319 105.7724 0008215 150.8374 209.3074 15.48408287555008
SZ-21 MODULE            
1 66515U 25246C   26061.55898934  .00039531  00000+0  34908-3 0  9995
2 66515  41.4734 247.2373 0001469 286.7563  73.3117 15.67907744 16956
SHENZHOU-22             
1 66645U 25272A   26061.80363536  .00017409  00000+0  21017-3 0  9998
2 66645  41.4651 250.0496 0006616 230.1207 129.9050 15.60315912267521
SOYUZ-MS 28             
1 66664U 25275A   26061.93054995  .00009325  00000+0  18075-3 0  9990
2 66664  51.6319 105.7724 0008215 150.8374 209.3074 15.48408287555057
DUPLEX                  
1 66906U 98067XS  26062.09931039  .00032492  00000+0  46792-3 0  9997
2 66906  51.6288 102.4033 0002012  88.3197 271.8024 15.55725286 14109
ISS OBJECT XT           
1 66907U 98067XT  26062.14622119  .00142412  00000+0  12921-2 0  9990
2 66907  51.6250  98.9571 0004595  37.5259 322.6057 15.67032672 14157
ISS OBJECT XU           
1 66908U 98067XU  26062.14485211  .00145090  00000+0  13112-2 0  9999
2 66908  51.6246  98.9445 0004720  40.6339 319.5009 15.67118412 14156
SILVERSAT               
1 66909U 98067XV  26062.09330892  .00175992  00000+0  14375-2 0  9994
2 66909  51.6248  98.6005 0005412  37.0222 323.1148 15.69479082 14158
