CCSDS_OMM_VERS = 2.0
CREATION_DATE  = 
ORIGINATOR     = 

OBJECT_NAME    = YOTSUBA-KULOVER
OBJECT_ID      = 1998-067XN
CENTER_NAME    = EARTH
REF_FRAME      = TEME
TIME_SYSTEM    = UTC
MEAN_ELEMENT_THEORY = SGP/SGP4

EPOCH          = 2026-03-03T02:58:13.123200
MEAN_MOTION    = 15.77593623
ECCENTRICITY   = .0006055
INCLINATION    = 51.6215
RA_OF_ASC_NODE = 91.2752
ARG_OF_PERICENTER = 28.2393
MEAN_ANOMALY   = 331.8934

EPHEMERIS_TYPE = 0
CLASSIFICATION_TYPE = U
NORAD_CAT_ID   = 65941
ELEMENT_SET_NO = 999
REV_AT_EPOCH   = 2246
BSTAR          = .10993E-2
MEAN_MOTION_DOT = .191043E-2
MEAN_MOTION_DDOT = 0

CCSDS_OMM_VERS = 2.0
CREATION_DATE  = 
ORIGINATOR     = 

OBJECT_NAME    = BOTAN
OBJECT_ID      = 1998-067XP
CENTER_NAME    = EARTH
REF_FRAME      = TEME
TIME_SYSTEM    = UTC
MEAN_ELEMENT_THEORY = SGP/SGP4

EPOCH          = 2026-03-03T04:21:07.440768
MEAN_MOTION    = 16.24781476
ECCENTRICITY   = .0003369
INCLINATION    = 51.6045
RA_OF_ASC_NODE = 83.2412
ARG_OF_PERICENTER = 47.8026
MEAN_ANOMALY   = 312.3279

EPHEMERIS_TYPE = 0
CLASSIFICATION_TYPE = U
NORAD_CAT_ID   = 65942
ELEMENT_SET_NO = 999
REV_AT_EPOCH   = 2257
BSTAR          = .14562E-2
MEAN_MOTION_DOT = .4280876E-1
MEAN_MOTION_DDOT = .12003E-4

CCSDS_OMM_VERS = 2.0
CREATION_DATE  = 
ORIGINATOR     = 

OBJECT_NAME    = E-KAGAKU-1
OBJECT_ID      = 1998-067XQ
CENTER_NAME    = EARTH
REF_FRAME      = TEME
TIME_SYSTEM    = UTC
MEAN_ELEMENT_THEORY = SGP/SGP4

EPOCH          = 2026-03-03T03:02:49.680960
MEAN_MOTION    = 15.77340403
ECCENTRICITY   = .0006275
INCLINATION    = 51.6235
RA_OF_ASC_NODE = 91.3116
ARG_OF_PERICENTER = 36.2244
MEAN_ANOMALY   = 323.9180

EPHEMERIS_TYPE = 0
CLASSIFICATION_TYPE = U
NORAD_CAT_ID   = 65943
ELEMENT_SET_NO = 999
REV_AT_EPOCH   = 2246
BSTAR          = .10758E-2
MEAN_MOTION_DOT = .184729E-2
MEAN_MOTION_DDOT = 0

CCSDS_OMM_VERS = 2.0
CREATION_DATE  = 
ORIGINATOR     = 

OBJECT_NAME    = HRC MONOBLOCK CAMERA
OBJECT_ID      = 1998-067XR
CENTER_NAME    = EARTH
REF_FRAME      = TEME
TIME_SYSTEM    = UTC
MEAN_ELEMENT_THEORY = SGP/SGP4

EPOCH          = 2026-03-02T09:44:13.048512
MEAN_MOTION    = 15.61308322
ECCENTRICITY   = .0003324
INCLINATION    = 51.6272
RA_OF_ASC_NODE = 102.2710
ARG_OF_PERICENTER = 60.8077
MEAN_ANOMALY   = 299.3249

EPHEMERIS_TYPE = 0
CLASSIFICATION_TYPE = U
NORAD_CAT_ID   = 66052
ELEMENT_SET_NO = 999
REV_AT_EPOCH   = 2125
BSTAR          = .62048736E-3
MEAN_MOTION_DOT = .53624E-3
MEAN_MOTION_DDOT = 0

CCSDS_OMM_VERS = 2.0
CREATION_DATE  = 
ORIGINATOR     = 

OBJECT_NAME    = HTV-X1
OBJECT_ID      = 2025-241A
CENTER_NAME    = EARTH
REF_FRAME      = TEME
TIME_SYSTEM    = UTC
MEAN_ELEMENT_THEORY = SGP/SGP4

EPOCH          = 2026-03-02T22:19:59.515680
MEAN_MOTION    = 15.48408287
ECCENTRICITY   = .0008215
INCLINATION    = 51.6319
RA_OF_ASC_NODE = 105.7724
ARG_OF_PERICENTER = 150.8374
MEAN_ANOMALY   = 209.3074

EPHEMERIS_TYPE = 0
CLASSIFICATION_TYPE = U
NORAD_CAT_ID   = 66174
ELEMENT_SET_NO = 999
REV_AT_EPOCH   = 55500
BSTAR          = .18075E-3
MEAN_MOTION_DOT = .9325E-4
MEAN_MOTION_DDOT = 0

CCSDS_OMM_VERS = 2.0
CREATION_DATE  = 
ORIGINATOR     = 

OBJECT_NAME    = SZ-21 MODULE
OBJECT_ID      = 2025-246C
CENTER_NAME    = EARTH
REF_FRAME      = TEME
TIME_SYSTEM    = UTC
MEAN_ELEMENT_THEORY = SGP/SGP4

EPOCH          = 2026-03-02T13:24:56.678976
MEAN_MOTION    = 15.67907744
ECCENTRICITY   = .0001469
INCLINATION    = 41.4734
RA_OF_ASC_NODE = 247.2373
ARG_OF_PERICENTER = 286.7563
MEAN_ANOMALY   = 73.3117

EPHEMERIS_TYPE = 0
CLASSIFICATION_TYPE = U
NORAD_CAT_ID   = 66515
ELEMENT_SET_NO = 999
REV_AT_EPOCH   = 1695
BSTAR          = .34908E-3
MEAN_MOTION_DOT = .39531E-3
MEAN_MOTION_DDOT = 0

CCSDS_OMM_VERS = 2.0
CREATION_DATE  = 
ORIGINATOR     = 

OBJECT_NAME    = SHENZHOU-22
OBJECT_ID      = 2025-272A
CENTER_NAME    = EARTH
REF_FRAME      = TEME
TIME_SYSTEM    = UTC
MEAN_ELEMENT_THEORY = SGP/SGP4

EPOCH          = 2026-03-02T19:17:14.095104
MEAN_MOTION    = 15.60315912
ECCENTRICITY   = .00066169
INCLINATION    = 41.4651
RA_OF_ASC_NODE = 250.0496
ARG_OF_PERICENTER = 230.1207
MEAN_ANOMALY   = 129.9050

EPHEMERIS_TYPE = 0
CLASSIFICATION_TYPE = U
NORAD_CAT_ID   = 66645
ELEMENT_SET_NO = 999
REV_AT_EPOCH   = 26752
BSTAR          = .21016754E-3
MEAN_MOTION_DOT = .17409E-3
MEAN_MOTION_DDOT = 0

CCSDS_OMM_VERS = 2.0
CREATION_DATE  = 
ORIGINATOR     = 

OBJECT_NAME    = SOYUZ-MS 28
OBJECT_ID      = 2025-275A
CENTER_NAME    = EARTH
REF_FRAME      = TEME
TIME_SYSTEM    = UTC
MEAN_ELEMENT_THEORY = SGP/SGP4

EPOCH          = 2026-03-02T22:19:59.515680
MEAN_MOTION    = 15.48408287
ECCENTRICITY   = .0008215
INCLINATION    = 51.6319
RA_OF_ASC_NODE = 105.7724
ARG_OF_PERICENTER = 150.8374
MEAN_ANOMALY   = 209.3074

EPHEMERIS_TYPE = 0
CLASSIFICATION_TYPE = U
NORAD_CAT_ID   = 66664
ELEMENT_SET_NO = 999
REV_AT_EPOCH   = 55505
BSTAR          = .18075E-3
MEAN_MOTION_DOT = .9325E-4
MEAN_MOTION_DDOT = 0

CCSDS_OMM_VERS = 2.0
CREATION_DATE  = 
ORIGINATOR     = 

OBJECT_NAME    = DUPLEX
OBJECT_ID      = 1998-067XS
CENTER_NAME    = EARTH
REF_FRAME      = TEME
TIME_SYSTEM    = UTC
MEAN_ELEMENT_THEORY = SGP/SGP4

EPOCH          = 2026-03-03T02:23:00.417696
MEAN_MOTION    = 15.55725286
ECCENTRICITY   = .0002012
INCLINATION    = 51.6288
RA_OF_ASC_NODE = 102.4033
ARG_OF_PERICENTER = 88.3197
MEAN_ANOMALY   = 271.8024

EPHEMERIS_TYPE = 0
CLASSIFICATION_TYPE = U
NORAD_CAT_ID   = 66906
ELEMENT_SET_NO = 999
REV_AT_EPOCH   = 1410
BSTAR          = .46792E-3
MEAN_MOTION_DOT = .32492E-3
MEAN_MOTION_DDOT = 0

CCSDS_OMM_VERS = 2.0
CREATION_DATE  = 
ORIGINATOR     = 

OBJECT_NAME    = ISS OBJECT XT
OBJECT_ID      = 1998-067XT
CENTER_NAME    = EARTH
REF_FRAME      = TEME
TIME_SYSTEM    = UTC
MEAN_ELEMENT_THEORY = SGP/SGP4

EPOCH          = 2026-03-03T03:30:33.510816
MEAN_MOTION    = 15.67032672
ECCENTRICITY   = .0004595
INCLINATION    = 51.6250
RA_OF_ASC_NODE = 98.9571
ARG_OF_PERICENTER = 37.5259
MEAN_ANOMALY   = 322.6057

EPHEMERIS_TYPE = 0
CLASSIFICATION_TYPE = U
NORAD_CAT_ID   = 66907
ELEMENT_SET_NO = 999
REV_AT_EPOCH   = 1415
BSTAR          = .12921E-2
MEAN_MOTION_DOT = .142412E-2
MEAN_MOTION_DDOT = 0

CCSDS_OMM_VERS = 2.0
CREATION_DATE  = 
ORIGINATOR     = 

OBJECT_NAME    = ISS OBJECT XU
OBJECT_ID      = 1998-067XU
CENTER_NAME    = EARTH
REF_FRAME      = TEME
TIME_SYSTEM    = UTC
MEAN_ELEMENT_THEORY = SGP/SGP4

EPOCH          = 2026-03-03T03:28:35.222304
MEAN_MOTION    = 15.67118412
ECCENTRICITY   = .000472
INCLINATION    = 51.6246
RA_OF_ASC_NODE = 98.9445
ARG_OF_PERICENTER = 40.6339
MEAN_ANOMALY   = 319.5009

EPHEMERIS_TYPE = 0
CLASSIFICATION_TYPE = U
NORAD_CAT_ID   = 66908
ELEMENT_SET_NO = 999
REV_AT_EPOCH   = 1415
BSTAR          = .13112E-2
MEAN_MOTION_DOT = .14509E-2
MEAN_MOTION_DDOT = 0

CCSDS_OMM_VERS = 2.0
CREATION_DATE  = 
ORIGINATOR     = 

OBJECT_NAME    = SILVERSAT
OBJECT_ID      = 1998-067XV
CENTER_NAME    = EARTH
REF_FRAME      = TEME
TIME_SYSTEM    = UTC
MEAN_ELEMENT_THEORY = SGP/SGP4

EPOCH          = 2026-03-03T02:14:21.890688
MEAN_MOTION    = 15.69479082
ECCENTRICITY   = .0005412
INCLINATION    = 51.6248
RA_OF_ASC_NODE = 98.6005
ARG_OF_PERICENTER = 37.0222
MEAN_ANOMALY   = 323.1148

EPHEMERIS_TYPE = 0
CLASSIFICATION_TYPE = U
NORAD_CAT_ID   = 66909
ELEMENT_SET_NO = 999
REV_AT_EPOCH   = 1415
BSTAR          = .14375E-2
MEAN_MOTION_DOT = .175992E-2
MEAN_MOTION_DDOT = 0

